[{"OBJECT_NAME":"HONGHU 2","OBJECT_ID":"2023-193C","EPOCH":"2026-03-09T23:21:07.139520","MEAN_MOTION":15.21543878,"ECCENTRICITY":0.00399876,"INCLINATION":97.2779,"RA_OF_ASC_NODE":62.3901,"ARG_OF_PERICENTER":264.1736,"MEAN_ANOMALY":95.4941,"EPHEMERIS_TYPE":0,"CLASSIFICATION_TYPE":"U","NORAD_CAT_ID":58555,"ELEMENT_SET_NO":999,"REV_AT_EPOCH":8691,"BSTAR":0.0061775359,"MEAN_MOTION_DOT":0.00144707,"MEAN_MOTION_DDOT":0},{"OBJECT_NAME":"STARLINK-32145","OBJECT_ID":"2024-120V","EPOCH":"2026-03-09T22:01:00.909696","MEAN_MOTION":15.30188482,"ECCENTRICITY":9.504e-5,"INCLINATION":53.1598,"RA_OF_ASC_NODE":318.6783,"ARG_OF_PERICENTER":95.1366,"MEAN_ANOMALY":264.9743,"EPHEMERIS_TYPE":0,"CLASSIFICATION_TYPE":"U","NORAD_CAT_ID":60154,"ELEMENT_SET_NO":999,"REV_AT_EPOCH":9641,"BSTAR":5.1178291e-5,"MEAN_MOTION_DOT":1.157e-5,"MEAN_MOTION_DDOT":0}]
